[{"OBJECT_ID":"2009-054A","OBJECT_NAME":"AMAZONAS 2","NORAD_CAT_ID":"35942","OBJECT_TYPE":"PAYLOAD","PERIOD":"1436.121","INCLINATION":"0.021","APOGEE":"35810.975","PERIGEE":"35763.168","ECCENTRICITY":"0.0005669","MEAN_MOTION":"1.00270091","TLE_LINE1":"1 35942U 09054A   16238.77812355 -.00000310  00000-0  00000+0 0  9993","TLE_LINE2":"2 35942   0.0210 163.7689 0005669 359.1854  30.6097  1.00270091 25269","LAUNCH_DATE":"2009-09-30","LAUNCH_SITE":"FRENCH GUIANA","OWNER":"SPAIN","ORBIT_TYPE":"Geosynchronous","OPERATIONAL_STATUS":"Operational","satInfo":{"lng":-71.96630325759395,"lat":0.30495350840040797,"elevation":-8.277865770066846,"azimuth":26.966303257593953,"range":42597.88657111919,"height":35776.53921363223,"velocity":3.075889759818665},"x":-328.6141780081346,"y":-108.27200948734531,"dx":0.9522224954015451,"dy":-2.924785485092638,"maxAlt":342.01289552982445,"minAlt":341.5537708175187},{"OBJECT_ID":"2009-054B","OBJECT_NAME":"COMSATBW-1","NORAD_CAT_ID":"35943","OBJECT_TYPE":"PAYLOAD","PERIOD":"1436.087","INCLINATION":"0.056","APOGEE":"35797.183","PERIGEE":"35775.654","ECCENTRICITY":"0.0002553","MEAN_MOTION":"1.0027242","TLE_LINE1":"1 35943U 09054B   16238.86239844 -.00000003 +00000-0 +00000-0 0  9990","TLE_LINE2":"2 35943 000.0560 099.6855 0002553 080.8352 167.4652 01.00272420025387","LAUNCH_DATE":"2009-09-30","LAUNCH_SITE":"FRENCH GUIANA","OWNER":"GERMANY","ORBIT_TYPE":"Geosynchronous","OPERATIONAL_STATUS":"Operational","satInfo":{"lng":87.36479217982239,"lat":-2.174241955549925,"elevation":-10.690415922408054,"azimuth":227.63520782017758,"range":42885.99662020937,"height":35793.85344021091,"velocity":3.0741868944519735},"x":341.4849472873948,"y":-17.71015209953435,"dx":0.14134139692766082,"dy":3.0709359601813264,"maxAlt":341.8804411187105,"minAlt":341.6736827793203},{"OBJECT_ID":"2009-058A","OBJECT_NAME":"NSS 12","NORAD_CAT_ID":"36032","OBJECT_TYPE":"PAYLOAD","PERIOD":"1436.102","INCLINATION":"0.0313","APOGEE":"35798.099","PERIGEE":"35775.313","ECCENTRICITY":"0.0002702","MEAN_MOTION":"1.00271395","TLE_LINE1":"1 36032U 09058A   16238.91228599  .00000044  00000-0  00000+0 0  9998","TLE_LINE2":"2 36032   0.0313 284.2319 0002702 228.4931 207.2825  1.00271395 25025","LAUNCH_DATE":"2009-10-29","LAUNCH_SITE":"FRENCH GUIANA","OWNER":"SOCIÉTÉ EUROPÉENNE DES SATELLITES","ORBIT_TYPE":"Geosynchronous","OPERATIONAL_STATUS":"Operational","satInfo":{"lng":93.11866486077383,"lat":2.0869875333974264,"elevation":-6.52810916603235,"azimuth":221.88133513922617,"range":42420.79413391996,"height":35795.55507266986,"velocity":3.073999982810883},"x":341.35568339976913,"y":16.797075141940528,"dx":-0.16723819227581288,"dy":3.069447390226069,"maxAlt":341.88923811991276,"minAlt":341.67040791315225},{"OBJECT_ID":"2009-058B","OBJECT_NAME":"THOR 6","NORAD_CAT_ID":"36033","OBJECT_TYPE":"PAYLOAD","PERIOD":"1436.099","INCLINATION":"0.0228","APOGEE":"35793.901","PERIGEE":"35779.396","ECCENTRICITY":"0.000172","MEAN_MOTION":"1.002716","TLE_LINE1":"1 36033U 09058B   16239.13452203 -.00000038  00000-0  00000+0 0  9999","TLE_LINE2":"2 36033   0.0228 209.8796 0001720 314.8671 217.6354  1.00271600 25046","LAUNCH_DATE":"2009-10-29","LAUNCH_SITE":"FRENCH GUIANA","OWNER":"NORWAY","ORBIT_TYPE":"Geosynchronous","OPERATIONAL_STATUS":"Operational","satInfo":{"lng":19.639328404984344,"lat":0.9475963618456901,"elevation":-7.6443202268180865,"azimuth":295.3606715950157,"range":42551.109086942044,"height":35800.58033782526,"velocity":3.074257581995494},"x":113.65132091708244,"y":-325.7229739283393,"dx":2.8954187142456185,"dy":1.0332522197668048,"maxAlt":341.84892173230713,"minAlt":341.709619873751},{"OBJECT_ID":"2009-064A","OBJECT_NAME":"INTELSAT 14","NORAD_CAT_ID":"36097","OBJECT_TYPE":"PAYLOAD","PERIOD":"1436.079","INCLINATION":"0.0145","APOGEE":"35795.616","PERIGEE":"35776.887","ECCENTRICITY":"0.0002221","MEAN_MOTION":"1.00273015","TLE_LINE1":"1 36097U 09064A   16237.20026821 -.00000297 +00000-0 +00000-0 0  9993","TLE_LINE2":"2 36097 000.0145 113.7955 0002221 052.1829 194.0243 01.00273015024796","LAUNCH_DATE":"2009-11-23","LAUNCH_SITE":"AIR FORCE EASTERN TEST RANGE","OWNER":"INTERNATIONAL TELECOMMUNICATIONS SATELLITE ORGANIZATION (INTELSAT)","ORBIT_TYPE":"Geosynchronous","OPERATIONAL_STATUS":"Operational","satInfo":{"lng":-45.05493521804625,"lat":2.1677674582179667,"elevation":-6.452561950303484,"azimuth":0.05493521804622798,"range":42393.41907889736,"height":35776.86755845809,"velocity":3.0753933921312964},"x":-245.09363295657934,"y":-244.6277416116536,"dx":2.1725454855051707,"dy":-2.1767155601446744,"maxAlt":341.8653921002785,"minAlt":341.6855241575761},{"OBJECT_ID":"2009-067A","OBJECT_NAME":"INTELSAT 15","NORAD_CAT_ID":"36106","OBJECT_TYPE":"PAYLOAD","PERIOD":"1436.105","INCLINATION":"0.06","APOGEE":"35795.803","PERIGEE":"35777.731","ECCENTRICITY":"0.0002143","MEAN_MOTION":"1.00271177","TLE_LINE1":"1 36106U 09067A   16238.86297331 -.00000213 +00000-0 +00000-0 0  9994","TLE_LINE2":"2 36106 000.0600 285.3481 0002143 236.4673 208.5442 01.00271177005383","LAUNCH_DATE":"2009-11-30","LAUNCH_SITE":"TYURATAM MISSILE AND SPACE COMPLEX","OWNER":"INTERNATIONAL TELECOMMUNICATIONS SATELLITE ORGANIZATION (INTELSAT)","ORBIT_TYPE":"Geosynchronous","OPERATIONAL_STATUS":"Operational","satInfo":{"lng":65.39005282027361,"lat":1.3907238695553246,"elevation":-7.212413928153856,"azimuth":249.6099471797264,"range":42491.52526426664,"height":35789.58372088423,"velocity":3.074413921010937},"x":310.5858950172428,"y":-145.04076427873028,"dx":1.2803047502499658,"dy":2.7951459182291747,"maxAlt":341.8671879946287,"minAlt":341.6936296914348},{"OBJECT_ID":"2010-001A","OBJECT_NAME":"BEIDOU G1","NORAD_CAT_ID":"36287","OBJECT_TYPE":"PAYLOAD","PERIOD":"1436.090","INCLINATION":"1.5246","APOGEE":"35805.425","PERIGEE":"35767.502","ECCENTRICITY":"0.0004497","MEAN_MOTION":"1.0027226","TLE_LINE1":"1 36287U 10001A   16238.85035899 -.00000310 +00000-0 +10000-3 0  9994","TLE_LINE2":"2 36287 001.5246 002.0197 0004497 212.4764 206.2152 01.00272260024256","LAUNCH_DATE":"2010-01-16","LAUNCH_SITE":"Xichang Space Center, China","OWNER":"PEOPLES REPUBLIC OF CHINA","ORBIT_TYPE":"Geosynchronous","OPERATIONAL_STATUS":"Operational","satInfo":{"lng":122.11002214844994,"lat":0.4996774805866667,"elevation":-8.086969404248547,"azimuth":192.88997785155001,"range":42578.99604617565,"height":35779.04127158782,"velocity":3.0745236750284457},"x":289.1435808768815,"y":180.7402200060946,"dx":-1.6342530657867937,"dy":2.604210580056245,"maxAlt":341.9595949221039,"minAlt":341.5953933101062},{"OBJECT_ID":"2010-008A","OBJECT_NAME":"GOES 15","NORAD_CAT_ID":"36411","OBJECT_TYPE":"PAYLOAD","PERIOD":"1436.220","INCLINATION":"0.3923","APOGEE":"35801.398","PERIGEE":"35776.637","ECCENTRICITY":"0.0002936","MEAN_MOTION":"1.00263149","TLE_LINE1":"1 36411U 10008A   16238.44723602 +.00000063 +00000-0 +00000-0 0  9991","TLE_LINE2":"2 36411 000.3923 272.5942 0002936 257.9849 189.4200 01.00263149023767","LAUNCH_DATE":"2010-03-04","LAUNCH_SITE":"AIR FORCE EASTERN TEST RANGE","OWNER":"UNITED STATES OF AMERICA","ORBIT_TYPE":"Geosynchronous","OPERATIONAL_STATUS":"Operational","satInfo":{"lng":-122.02435161162384,"lat":-1.3489625990261027,"elevation":-9.892710633893216,"azimuth":77.02435161162384,"range":42771.687525619134,"height":35769.25554055595,"velocity":3.0754591114509946},"x":-293.14754398718225,"y":180.25499458274533,"dx":-1.630853381828754,"dy":-2.607444341339745,"maxAlt":341.9209207694389,"minAlt":341.6831232293004},{"OBJECT_ID":"2010-021A","OBJECT_NAME":"ASTRA 3B","NORAD_CAT_ID":"36581","OBJECT_TYPE":"PAYLOAD","PERIOD":"1436.101","INCLINATION":"0.0561","APOGEE":"35798.900","PERIGEE":"35774.461","ECCENTRICITY":"0.0002898","MEAN_MOTION":"1.00271484","TLE_LINE1":"1 36581U 10021A   16239.07378310  .00000109  00000-0  00000+0 0  9996","TLE_LINE2":"2 36581   0.0561 338.6185 0002898 188.1095 218.0512  1.00271484 22730","LAUNCH_DATE":"2010-05-21","LAUNCH_SITE":"FRENCH GUIANA","OWNER":"SOCIÉTÉ EUROPÉENNE DES SATELLITES","ORBIT_TYPE":"Geosynchronous","OPERATIONAL_STATUS":"Operational","satInfo":{"lng":51.760285862366764,"lat":-0.4437465584478083,"elevation":-9.011305782342184,"azimuth":263.2397141376332,"range":42668.7712198555,"height":35765.255562117905,"velocity":3.075357229305274},"x":267.8728091624874,"y":-214.50293408861037,"dx":1.9035014525675498,"dy":2.415471860302546,"maxAlt":341.8969306941081,"minAlt":341.6622255495887},{"OBJECT_ID":"2010-025A","OBJECT_NAME":"BADR-5 (ARABSAT 5B)","NORAD_CAT_ID":"36592","OBJECT_TYPE":"PAYLOAD","PERIOD":"1436.104","INCLINATION":"0.0115","APOGEE":"35806.764","PERIGEE":"35766.707","ECCENTRICITY":"0.000475","MEAN_MOTION":"1.00271288","TLE_LINE1":"1 36592U 10025A   16239.11923657  .00000116  00000-0  00000+0 0  9995","TLE_LINE2":"2 36592   0.0115 149.6180 0004750  21.0506 233.0154  1.00271288 22981","LAUNCH_DATE":"2010-06-03","LAUNCH_SITE":"TYURATAM MISSILE AND SPACE COMPLEX","OWNER":"ARAB SATELLITE COMMUNICATIONS ORGANIZATION","ORBIT_TYPE":"Geosynchronous","OPERATIONAL_STATUS":"Operational","satInfo":{"lng":62.448946529885795,"lat":0.20009600785508294,"elevation":-8.382181744177139,"azimuth":252.5510534701142,"range":42600.3742833882,"height":35767.424699020565,"velocity":3.0751274824694272},"x":302.6414113257611,"y":-160.78755216001665,"dx":1.4223657812587631,"dy":2.7264050722045883,"maxAlt":341.97245429394854,"minAlt":341.58775835818955}]